COSMOS 2576             
1 59773U 24092A   26068.82603826  .00015211  00000+0  56283-3 0  9991
2 59773  97.4253 186.0053 0005946 159.7731 200.3745 15.27760963101271
STARLINK-32525          
1 62121U 24222H   26068.24128635  .00027843  00000+0  10173-2 0  9994
2 62121  42.9961 138.4382 0000284 215.4842 144.5991 15.27587818 72693
